{"type":"FeatureCollection","features":[{"type":"Feature","properties":{},"geometry":{"type":"LineString","coordinates":[[76.951941,10.939119],[76.95347,10.938801],[76.954103,10.938071],[76.954166,10.938014],[76.956449,10.938122],[76.957982,10.938178],[76.959778,10.93904],[76.960756,10.939645],[76.960749,10.939625]]}},{"type":"Feature","properties":{},"geometry":{"type":"LineString","coordinates":[[76.955985,10.938114],[76.956043,10.936121],[76.956804,10.936152],[76.956809,10.936787],[76.95691,10.937159],[76.956897,10.938144],[76.956888,10.938136]]}},{"type":"Feature","properties":{},"geometry":{"type":"LineString","coordinates":[[76.956371,10.938123],[76.956379,10.937924],[76.956423,10.937839],[76.95657,10.937716],[76.956688,10.937585],[76.956692,10.937481],[76.956906,10.937482]]}},{"type":"Feature","properties":{},"geometry":{"type":"LineString","coordinates":[[76.956418,10.937839],[76.956301,10.937722],[76.956301,10.937722]]}},{"type":"Feature","properties":{},"geometry":{"type":"LineString","coordinates":[[76.956693,10.937481],[76.956006,10.93746],[76.956004,10.937459]]}},{"type":"Feature","properties":{},"geometry":{"type":"LineString","coordinates":[[76.956012,10.937185],[76.956297,10.937198],[76.95663,10.937207],[76.956907,10.937221],[76.956909,10.937221]]}},{"type":"Feature","properties":{},"geometry":{"type":"LineString","coordinates":[[76.956013,10.936889],[76.956837,10.936896],[76.956839,10.936896]]}},{"type":"Feature","properties":{},"geometry":{"type":"LineString","coordinates":[[76.955562,10.936944],[76.956025,10.936951],[76.956025,10.936951]]}},{"type":"Feature","properties":{},"geometry":{"type":"LineString","coordinates":[[76.956008,10.937353],[76.955699,10.93736],[76.955545,10.937344],[76.955566,10.936946]]}},{"type":"Feature","properties":{},"geometry":{"type":"LineString","coordinates":[[76.955711,10.937499],[76.955709,10.93736],[76.955803,10.937358],[76.955792,10.937226],[76.955798,10.936948]]}},{"type":"Feature","properties":{},"geometry":{"type":"LineString","coordinates":[[76.955982,10.938106],[76.956,10.938122],[76.956002,10.938217],[76.956169,10.938378],[76.956064,10.938453],[76.956064,10.938453]]}},{"type":"Feature","properties":{},"geometry":{"type":"LineString","coordinates":[[76.956162,10.938381],[76.956267,10.938476],[76.95628,10.938548],[76.956369,10.938538],[76.956369,10.938538]]}},{"type":"Feature","properties":{},"geometry":{"type":"LineString","coordinates":[[76.956055,10.938454],[76.956052,10.938559],[76.956052,10.938559]]}},{"type":"Feature","properties":{},"geometry":{"type":"LineString","coordinates":[[76.956055,10.938454],[76.956065,10.938453]]}},{"type":"Feature","properties":{},"geometry":{"type":"LineString","coordinates":[[76.956368,10.938539],[76.956371,10.938422],[76.956372,10.938117]]}},{"type":"Feature","properties":{},"geometry":{"type":"LineString","coordinates":[[76.956365,10.938535],[76.95654,10.938612],[76.956659,10.938617],[76.956653,10.938758]]}},{"type":"Feature","properties":{},"geometry":{"type":"LineString","coordinates":[[76.956367,10.938538],[76.956515,10.938455],[76.956538,10.9384],[76.956536,10.938311],[76.956532,10.938277],[76.956538,10.938239],[76.956607,10.938241],[76.956607,10.938241],[76.956607,10.938241]]}},{"type":"Feature","properties":{},"geometry":{"type":"LineString","coordinates":[[76.956012,10.937185],[76.955888,10.937184]]}},{"type":"Feature","properties":{},"geometry":{"type":"LineString","coordinates":[[76.955797,10.936952],[76.955844,10.936751],[76.955841,10.936496]]}},{"type":"Feature","properties":{},"geometry":{"type":"LineString","coordinates":[[76.956358,10.936893],[76.956367,10.936587]]}},{"type":"Feature","properties":{},"geometry":{"type":"LineString","coordinates":[[76.956219,10.936673],[76.956222,10.936589],[76.95663,10.936595],[76.956629,10.936689],[76.956629,10.936686]]}},{"type":"Feature","properties":{},"geometry":{"type":"LineString","coordinates":[[76.956338,10.936593],[76.956347,10.936513],[76.956032,10.936509]]}},{"type":"Feature","properties":{},"geometry":{"type":"LineString","coordinates":[[76.956594,10.936599],[76.956609,10.936519],[76.956809,10.93652]]}},{"type":"Feature","properties":{},"geometry":{"type":"LineString","coordinates":[[76.956346,10.936515],[76.95661,10.936519]]}},{"type":"Feature","properties":{},"geometry":{"type":"LineString","coordinates":[[76.956404,10.936517],[76.956395,10.936369]]}},{"type":"Feature","properties":{},"geometry":{"type":"LineString","coordinates":[[76.956344,10.936516],[76.956348,10.936313]]}},{"type":"Feature","properties":{},"geometry":{"type":"LineString","coordinates":[[76.956602,10.936526],[76.956648,10.936339]]}},{"type":"Feature","properties":{},"geometry":{"type":"LineString","coordinates":[[76.954161,10.93802],[76.954296,10.937776],[76.954924,10.93758],[76.954924,10.93758]]}},{"type":"Feature","properties":{},"geometry":{"type":"LineString","coordinates":[[76.954913,10.937588],[76.954976,10.937294],[76.954976,10.936973],[76.954978,10.937188],[76.955557,10.937211],[76.955555,10.937209]]}},{"type":"Feature","properties":{},"geometry":{"type":"LineString","coordinates":[[76.95275,10.938958],[76.952775,10.938717],[76.952838,10.93868],[76.95338,10.93859],[76.95366,10.938587]]}},{"type":"Feature","properties":{},"geometry":{"type":"LineString","coordinates":[[76.952977,10.938665],[76.952993,10.938427],[76.952782,10.938427]]}},{"type":"Feature","properties":{},"geometry":{"type":"LineString","coordinates":[[76.952338,10.939038],[76.952322,10.938816]]}},{"type":"Feature","properties":{},"geometry":{"type":"LineString","coordinates":[[76.954063,10.938098],[76.954028,10.937879],[76.953975,10.936178],[76.953776,10.935592],[76.953682,10.934603]]}},{"type":"Feature","properties":{},"geometry":{"type":"Point","coordinates":[76.956219,10.936673]}},{"type":"Feature","properties":{},"geometry":{"type":"Point","coordinates":[76.956629,10.936688]}},{"type":"Feature","properties":{},"geometry":{"type":"Point","coordinates":[76.956052,10.938559]}},{"type":"Feature","properties":{},"geometry":{"type":"Point","coordinates":[76.956653,10.938755]}},{"type":"Feature","properties":{},"geometry":{"type":"Point","coordinates":[76.956599,10.938241]}},{"type":"Feature","properties":{},"geometry":{"type":"Point","coordinates":[76.956301,10.937722]}},{"type":"Feature","properties":{},"geometry":{"type":"Point","coordinates":[76.956258,10.937196]}},{"type":"Feature","properties":{},"geometry":{"type":"Point","coordinates":[76.956645,10.937208]}},{"type":"Feature","properties":{},"geometry":{"type":"LineString","coordinates":[[76.955791,10.937217],[76.955795,10.937187],[76.955851,10.937183],[76.955895,10.937184]]}},{"type":"Feature","properties":{},"geometry":{"type":"Point","coordinates":[76.955895,10.937186]}},{"type":"Feature","properties":{},"geometry":{"type":"Point","coordinates":[76.952774,10.93843]}},{"type":"Feature","properties":{},"geometry":{"type":"Point","coordinates":[76.954976,10.936986]}},{"type":"Feature","properties":{},"geometry":{"type":"Point","coordinates":[76.955711,10.937504]}},{"type":"Feature","properties":{},"geometry":{"type":"Point","coordinates":[76.955696,10.937193]}},{"type":"Feature","properties":{},"geometry":{"type":"LineString","coordinates":[[76.955705,10.937364],[76.955699,10.937187],[76.955699,10.937187],[76.955698,10.93719]]}},{"type":"Feature","properties":{},"geometry":{"type":"Point","coordinates":[76.955847,10.936701]}},{"type":"Feature","properties":{},"geometry":{"type":"Point","coordinates":[76.955839,10.936304]}},{"type":"Feature","properties":{},"geometry":{"type":"LineString","coordinates":[[76.955835,10.936306],[76.955841,10.936498],[76.956035,10.936511]]}},{"type":"Feature","properties":{},"geometry":{"type":"Point","coordinates":[76.958981,10.939271]}},{"type":"Feature","properties":{},"geometry":{"type":"LineString","coordinates":[[76.958973,10.939279],[76.95918,10.938752],[76.95918,10.938752]]}},{"type":"Feature","properties":{},"geometry":{"type":"Point","coordinates":[76.960104,10.939644]}},{"type":"Feature","properties":{},"geometry":{"type":"LineString","coordinates":[[76.960083,10.939665],[76.960255,10.939337]]}},{"type":"Feature","properties":{},"geometry":{"type":"LineString","coordinates":[[76.956395,10.936141],[76.956424,10.935955],[76.956421,10.935956]]}},{"type":"Feature","properties":{},"geometry":{"type":"Point","coordinates":[76.956346,10.936326]}},{"type":"Feature","properties":{},"geometry":{"type":"Point","coordinates":[76.956646,10.936342]}},{"type":"Feature","properties":{},"geometry":{"type":"Point","coordinates":[76.956414,10.935967]}}]}